STARLINK-24             
1 44238U 19029D   21354.34228023  .00023989  00000+0  11386-2 0  9992
2 44238  52.9923 218.5162 0002868 112.5342 247.5956 15.19150294142563
STARLINK-61             
1 44249U 19029Q   21354.05574050  .00035586  00000+0  14000-2 0  9998
2 44249  52.9778 186.9366 0003130 298.5011  61.5670 15.25334132143063
STARLINK-71             
1 44252U 19029T   21354.31859333  .00028325  00000+0  12519-2 0  9997
2 44252  53.0035 217.6304 0003901 105.2629 254.8798 15.21511864142572
STARLINK-43             
1 44257U 19029Y   21354.19336124  .00355077  00000+0  29290-2 0  9997
2 44257  52.9920  64.7054 0004858   2.7301 357.3740 15.68710687144798
STARLINK-80             
1 44282U 19029AZ  21354.44196728  .00088751  00000+0  22233-2 0  9999
2 44282  53.0174 125.3765 0004283 150.9957 209.1284 15.39330990143976
